[{"OBJECT_NAME":"HELIOS 1B","OBJECT_ID":"1999-064A","EPOCH":"2026-03-26T06:13:12.306144","MEAN_MOTION":14.87760131,"ECCENTRICITY":0.00019607,"INCLINATION":98.1673,"RA_OF_ASC_NODE":347.988,"ARG_OF_PERICENTER":53.6198,"MEAN_ANOMALY":306.5198,"EPHEMERIS_TYPE":0,"CLASSIFICATION_TYPE":"U","NORAD_CAT_ID":25977,"ELEMENT_SET_NO":999,"REV_AT_EPOCH":68772,"BSTAR":0.00018377661,"MEAN_MOTION_DOT":1.618e-5,"MEAN_MOTION_DDOT":0},{"OBJECT_NAME":"TERRA","OBJECT_ID":"1999-068A","EPOCH":"2026-03-26T06:56:20.404320","MEAN_MOTION":14.61031723,"ECCENTRICITY":0.00035063,"INCLINATION":97.9559,"RA_OF_ASC_NODE":138.0869,"ARG_OF_PERICENTER":116.7473,"MEAN_ANOMALY":305.6869,"EPHEMERIS_TYPE":0,"CLASSIFICATION_TYPE":"U","NORAD_CAT_ID":25994,"ELEMENT_SET_NO":999,"REV_AT_EPOCH":39750,"BSTAR":9.5747629e-5,"MEAN_MOTION_DOT":4.26e-6,"MEAN_MOTION_DDOT":0},{"OBJECT_NAME":"SL-16 R/B","OBJECT_ID":"2000-006B","EPOCH":"2026-03-26T06:17:42.149760","MEAN_MOTION":14.15825493,"ECCENTRICITY":0.00158895,"INCLINATION":71.0014,"RA_OF_ASC_NODE":62.9871,"ARG_OF_PERICENTER":163.9662,"MEAN_ANOMALY":196.1967,"EPHEMERIS_TYPE":0,"CLASSIFICATION_TYPE":"U","NORAD_CAT_ID":26070,"ELEMENT_SET_NO":999,"REV_AT_EPOCH":35090,"BSTAR":0.00016690995,"MEAN_MOTION_DOT":2.81e-6,"MEAN_MOTION_DDOT":0},{"OBJECT_NAME":"TITAN 4B R/B","OBJECT_ID":"2000-047B","EPOCH":"2026-03-26T06:14:37.990752","MEAN_MOTION":15.09714772,"ECCENTRICITY":0.00397766,"INCLINATION":67.9913,"RA_OF_ASC_NODE":353.9111,"ARG_OF_PERICENTER":16.0093,"MEAN_ANOMALY":344.2303,"EPHEMERIS_TYPE":0,"CLASSIFICATION_TYPE":"U","NORAD_CAT_ID":26474,"ELEMENT_SET_NO":999,"REV_AT_EPOCH":39541,"BSTAR":0.00022852457,"MEAN_MOTION_DOT":3.625e-5,"MEAN_MOTION_DDOT":0},{"OBJECT_NAME":"ENVISAT","OBJECT_ID":"2002-009A","EPOCH":"2026-03-26T07:28:17.723136","MEAN_MOTION":14.39042549,"ECCENTRICITY":0.00012369,"INCLINATION":98.3755,"RA_OF_ASC_NODE":38.5157,"ARG_OF_PERICENTER":81.6246,"MEAN_ANOMALY":40.8529,"EPHEMERIS_TYPE":0,"CLASSIFICATION_TYPE":"U","NORAD_CAT_ID":27386,"ELEMENT_SET_NO":999,"REV_AT_EPOCH":26156,"BSTAR":5.5422453e-5,"MEAN_MOTION_DOT":1.28e-6,"MEAN_MOTION_DDOT":0},{"OBJECT_NAME":"IDEFIX & ARIANE 42P R/B","OBJECT_ID":"2002-021B","EPOCH":"2026-03-26T06:38:17.294784","MEAN_MOTION":14.31037008,"ECCENTRICITY":0.00125117,"INCLINATION":98.5889,"RA_OF_ASC_NODE":23.6865,"ARG_OF_PERICENTER":134.4589,"MEAN_ANOMALY":225.7619,"EPHEMERIS_TYPE":0,"CLASSIFICATION_TYPE":"U","NORAD_CAT_ID":27422,"ELEMENT_SET_NO":999,"REV_AT_EPOCH":24639,"BSTAR":0.00012367729,"MEAN_MOTION_DOT":2.82e-6,"MEAN_MOTION_DDOT":0},{"OBJECT_NAME":"AQUA","OBJECT_ID":"2002-022A","EPOCH":"2026-03-26T06:09:24.068448","MEAN_MOTION":14.62013521,"ECCENTRICITY":0.000103,"INCLINATION":98.4202,"RA_OF_ASC_NODE":52.9267,"ARG_OF_PERICENTER":117.4446,"MEAN_ANOMALY":353.5203,"EPHEMERIS_TYPE":0,"CLASSIFICATION_TYPE":"U","NORAD_CAT_ID":27424,"ELEMENT_SET_NO":999,"REV_AT_EPOCH":27115,"BSTAR":0.00020854079,"MEAN_MOTION_DOT":9.97e-6,"MEAN_MOTION_DDOT":0},{"OBJECT_NAME":"CZ-4B R/B","OBJECT_ID":"2002-024C","EPOCH":"2026-03-26T02:56:07.544256","MEAN_MOTION":14.14550466,"ECCENTRICITY":0.00496363,"INCLINATION":98.8804,"RA_OF_ASC_NODE":138.4437,"ARG_OF_PERICENTER":337.4968,"MEAN_ANOMALY":48.9502,"EPHEMERIS_TYPE":0,"CLASSIFICATION_TYPE":"U","NORAD_CAT_ID":27432,"ELEMENT_SET_NO":999,"REV_AT_EPOCH":23156,"BSTAR":4.1980388e-5,"MEAN_MOTION_DOT":3.7e-7,"MEAN_MOTION_DDOT":0},{"OBJECT_NAME":"MIDORI II (ADEOS-II)","OBJECT_ID":"2002-056A","EPOCH":"2026-03-26T02:45:13.680288","MEAN_MOTION":14.29296885,"ECCENTRICITY":8.868e-5,"INCLINATION":98.7797,"RA_OF_ASC_NODE":43.7088,"ARG_OF_PERICENTER":25.1601,"MEAN_ANOMALY":334.9623,"EPHEMERIS_TYPE":0,"CLASSIFICATION_TYPE":"U","NORAD_CAT_ID":27597,"ELEMENT_SET_NO":999,"REV_AT_EPOCH":21264,"BSTAR":0.00013491743,"MEAN_MOTION_DOT":2.98e-6,"MEAN_MOTION_DDOT":0},{"OBJECT_NAME":"H-2A R/B","OBJECT_ID":"2002-056E","EPOCH":"2026-03-26T08:04:06.810816","MEAN_MOTION":14.33771303,"ECCENTRICITY":0.00713035,"INCLINATION":98.3231,"RA_OF_ASC_NODE":45.0709,"ARG_OF_PERICENTER":111.5932,"MEAN_ANOMALY":50.8119,"EPHEMERIS_TYPE":0,"CLASSIFICATION_TYPE":"U","NORAD_CAT_ID":27601,"ELEMENT_SET_NO":999,"REV_AT_EPOCH":21649,"BSTAR":0.00011479332,"MEAN_MOTION_DOT":2.87e-6,"MEAN_MOTION_DDOT":0},{"OBJECT_NAME":"CZ-4B R/B","OBJECT_ID":"2003-049C","EPOCH":"2026-03-25T22:57:22.768992","MEAN_MOTION":14.55034235,"ECCENTRICITY":0.00481051,"INCLINATION":98.6892,"RA_OF_ASC_NODE":80.5014,"ARG_OF_PERICENTER":180.7013,"MEAN_ANOMALY":179.4123,"EPHEMERIS_TYPE":0,"CLASSIFICATION_TYPE":"U","NORAD_CAT_ID":28059,"ELEMENT_SET_NO":999,"REV_AT_EPOCH":18896,"BSTAR":9.1046731e-5,"MEAN_MOTION_DOT":3.47e-6,"MEAN_MOTION_DDOT":0},{"OBJECT_NAME":"CZ-2C R/B","OBJECT_ID":"2004-012C","EPOCH":"2026-03-26T02:24:39.560832","MEAN_MOTION":15.66488362,"ECCENTRICITY":0.00132029,"INCLINATION":97.7192,"RA_OF_ASC_NODE":151.9693,"ARG_OF_PERICENTER":243.0896,"MEAN_ANOMALY":116.9015,"EPHEMERIS_TYPE":0,"CLASSIFICATION_TYPE":"U","NORAD_CAT_ID":28222,"ELEMENT_SET_NO":999,"REV_AT_EPOCH":20684,"BSTAR":0.00054994722,"MEAN_MOTION_DOT":0.00057643,"MEAN_MOTION_DDOT":0},{"OBJECT_NAME":"SL-16 R/B","OBJECT_ID":"2004-021B","EPOCH":"2026-03-26T06:52:44.983200","MEAN_MOTION":14.14593894,"ECCENTRICITY":0.00048344,"INCLINATION":71.0005,"RA_OF_ASC_NODE":197.6626,"ARG_OF_PERICENTER":349.6302,"MEAN_ANOMALY":10.472,"EPHEMERIS_TYPE":0,"CLASSIFICATION_TYPE":"U","NORAD_CAT_ID":28353,"ELEMENT_SET_NO":999,"REV_AT_EPOCH":12518,"BSTAR":7.6228054e-5,"MEAN_MOTION_DOT":9.9e-7,"MEAN_MOTION_DDOT":0},{"OBJECT_NAME":"CZ-4B R/B","OBJECT_ID":"2004-035C","EPOCH":"2026-03-26T08:00:14.040576","MEAN_MOTION":15.29345901,"ECCENTRICITY":0.00299731,"INCLINATION":97.3477,"RA_OF_ASC_NODE":119.3777,"ARG_OF_PERICENTER":269.3207,"MEAN_ANOMALY":90.4599,"EPHEMERIS_TYPE":0,"CLASSIFICATION_TYPE":"U","NORAD_CAT_ID":28415,"ELEMENT_SET_NO":999,"REV_AT_EPOCH":18245,"BSTAR":0.00026119531,"MEAN_MOTION_DOT":7.457e-5,"MEAN_MOTION_DDOT":0},{"OBJECT_NAME":"CZ-2C R/B","OBJECT_ID":"2004-046B","EPOCH":"2026-03-26T05:51:10.638432","MEAN_MOTION":14.26997736,"ECCENTRICITY":0.01405827,"INCLINATION":98.1976,"RA_OF_ASC_NODE":359.1966,"ARG_OF_PERICENTER":105.7849,"MEAN_ANOMALY":255.8885,"EPHEMERIS_TYPE":0,"CLASSIFICATION_TYPE":"U","NORAD_CAT_ID":28480,"ELEMENT_SET_NO":999,"REV_AT_EPOCH":11086,"BSTAR":6.3369633e-5,"MEAN_MOTION_DOT":1.31e-6,"MEAN_MOTION_DDOT":0},{"OBJECT_NAME":"ARIANE 5 R/B","OBJECT_ID":"2004-049H","EPOCH":"2026-03-26T01:41:19.680288","MEAN_MOTION":14.85294047,"ECCENTRICITY":0.00829776,"INCLINATION":98.2652,"RA_OF_ASC_NODE":254.1435,"ARG_OF_PERICENTER":298.4005,"MEAN_ANOMALY":60.8863,"EPHEMERIS_TYPE":0,"CLASSIFICATION_TYPE":"U","NORAD_CAT_ID":28499,"ELEMENT_SET_NO":999,"REV_AT_EPOCH":14822,"BSTAR":8.9703733e-5,"MEAN_MOTION_DOT":7.53e-6,"MEAN_MOTION_DDOT":0},{"OBJECT_NAME":"CZ-2D R/B","OBJECT_ID":"2005-024B","EPOCH":"2026-03-26T07:31:15.922272","MEAN_MOTION":15.61638727,"ECCENTRICITY":0.00028492,"INCLINATION":97.3587,"RA_OF_ASC_NODE":101.0873,"ARG_OF_PERICENTER":352.1151,"MEAN_ANOMALY":8.0061,"EPHEMERIS_TYPE":0,"CLASSIFICATION_TYPE":"U","NORAD_CAT_ID":28738,"ELEMENT_SET_NO":999,"REV_AT_EPOCH":14237,"BSTAR":0.00049082661,"MEAN_MOTION_DOT":0.00042249,"MEAN_MOTION_DDOT":0}]
